[{"OBJECT_NAME":"STARLINK-32701","OBJECT_ID":"2025-003Z","EPOCH":"2026-03-09T23:10:54.661152","MEAN_MOTION":15.27600706,"ECCENTRICITY":0.00032858,"INCLINATION":42.9999,"RA_OF_ASC_NODE":287.4223,"ARG_OF_PERICENTER":242.1774,"MEAN_ANOMALY":117.8745,"EPHEMERIS_TYPE":0,"CLASSIFICATION_TYPE":"U","NORAD_CAT_ID":62510,"ELEMENT_SET_NO":999,"REV_AT_EPOCH":6659,"BSTAR":0.0014399808,"MEAN_MOTION_DOT":0.00039605,"MEAN_MOTION_DDOT":0},{"OBJECT_NAME":"UNKNOWN","OBJECT_ID":"","EPOCH":"2026-02-22T00:08:45.737952","MEAN_MOTION":14.15044008,"ECCENTRICITY":0.0509514,"INCLINATION":65.771,"RA_OF_ASC_NODE":261.596,"ARG_OF_PERICENTER":328.3661,"MEAN_ANOMALY":28.7697,"EPHEMERIS_TYPE":0,"CLASSIFICATION_TYPE":"U","NORAD_CAT_ID":87456,"ELEMENT_SET_NO":999,"REV_AT_EPOCH":62157,"BSTAR":0.00055206,"MEAN_MOTION_DOT":3.756e-5,"MEAN_MOTION_DDOT":0}]
